SPAINSAT NG I           
1 62852U 25021A   26196.13508125  .00000142  00000+0  00000+0 0  9997
2 62852   0.0128  47.8464 0000143 233.3536  89.3948  1.00269954  4261
QZS-6 (MICHIBIKI-6)     
1 62876U 25023A   26196.16225347 -.00000241  00000+0  00000+0 0  9991
2 62876   0.0097   2.0949 0001807 130.1122 309.6417  1.00266976  5234
ZHONGXING-10R           
1 63075U 25036A   26196.07990799 -.00000361  00000+0  00000+0 0  9990
2 63075   0.0191 224.1308 0004194 283.5559 284.5260  1.00272266  5232
TJS-15                  
1 63157U 25045A   26194.74757417 -.00000269  00000+0  00000+0 0  9998
2 63157   0.3063  85.6357 0003351 295.0634 274.4075  1.00269569  5025
TIANLIAN 2-04           
1 63361U 25062A   26196.14522132 -.00000141  00000+0  00000+0 0  9993
2 63361   4.3044 274.0376 0031605   9.4094 141.8441  1.00271041  4885
TJS-16                  
1 63397U 25064A   26194.76445146 -.00000111  00000+0  00000+0 0  9996
2 63397   1.1643  81.2920 0002489 290.3397 355.8257  1.00270806  4657
TJS-17                  
1 63524U 25073A   26194.76226279 -.00000076  00000+0  00000+0 0  9992
2 63524   1.1304  82.4646 0000992 303.0552 345.0327  1.00270523  4557
TIANLIAN 2-05           
1 63662U 25084A   26196.00183767  .00000119  00000+0  00000+0 0  9997
2 63662   4.3824 279.5177 0002578 154.1935 240.1636  1.00271339  4668
TJS-19                  
1 63924U 25097A   26194.73157992 -.00000278  00000+0  00000+0 0  9998
2 63924   3.2430 317.8726 0003966 245.4291 132.8569  1.00266719  4418
CHINASAT 3B             
1 64062U 25106A   26195.73479962 -.00000054  00000+0  00000+0 0  9990
2 64062   0.0247 140.7771 0003893   5.4649 218.1905  1.00270420  4333
SXM-10                  
1 64290U 25122A   26194.60932681 -.00000021  00000+0  00000+0 0  9992
2 64290   0.0157  36.2449 0001828 322.9748  35.4661  1.00271903  3942
COSMOS 2589             
1 64467U 25131A   26194.72299990 -.00000296  00000+0  00000+0 0  9994
2 64467   0.0273 122.3287 0000927  83.5150  84.0384  1.00273922  3822
CHINASAT 9C             
1 64470U 25132A   26196.14764800  .00000000  00000+0  00000+0 0  9996
2 64470   0.0181  75.3484 0002963  39.5577 323.4513  1.00266853  4422
MTG-S1                  
1 64723U 25143A   26196.12927456 -.00000016  00000+0  00000+0 0  9993
2 64723   0.5847 345.0838 0003454 261.3988  92.6300  1.00273517  3696
DROR 1                  
1 64784U 25148A   26196.12858123 -.00000044  00000+0  00000+0 0  9990
2 64784   0.0467 254.9990 0001978 141.4661 298.8006  1.00271916  3579
SHIYAN-29               
1 65486U 25196A   26195.84006205 -.00000286  00000+0  00000+0 0  9995
2 65486  28.8510  18.1865 0013305 177.9549 134.2779  1.00276426  3158
NUSANTARA LIMA (NUSANT*)
1 65588U 25205A   26196.08042800 -.00000367  00000+0  00000+0 0  9997
2 65588   0.0090  99.9467 0000315 105.3404 229.4284  1.00268316  2991
TJS-20                  
1 66142U 25238A   26196.00046074  .00000020  00000+0  00000+0 0  9994
2 66142   5.4086 299.4435 0004280 182.2031 233.8324  1.00274861  2614
CMS-03 (GSAT-7R)        
1 66311U 25249B   26196.19261125 -.00000086  00000+0  00000+0 0  9993
2 66311   0.0189 297.4812 0001468 142.2637 356.6077  1.00271287  2626
VIASAT-3 F2             
1 66454U 25261A   26195.32953781 -.00000240  00000+0  00000+0 0  9997
2 66454   0.0014 307.9780 0000749 275.9845 107.8920  1.00270448  3068
SHIJIAN-28 (SJ-28)      
1 66549U 25277A   26196.00990350 -.00000366  00000+0  00000+0 0  9997
2 66549   4.4678 271.6915 0001175  22.7282 118.8083  1.00266940  2435
TJS-22                  
1 66990U 25290A   26193.80754925 -.00000005  00000+0  00000+0 0  9993
2 66990   1.4677 286.9097 0002691 318.9700  42.0235  1.00269739  2289
TJS-23                  
1 67226U 25306A   26195.52676590  .00000016  00000+0  00000+0 0  9997
2 67226   5.5269 297.3430 0005025 194.3728 165.8686  1.00275378  2168
FENGYUN 4C              
1 67246U 25312A   26194.65865777 -.00000328  00000+0  00000+0 0  9993
2 67246   0.0385 175.3203 0000658  48.7481  77.5697  1.00269440  2048
SHIJIAN-29A (SJ-29A)    
1 67302U 25315A   26195.99905991 -.00000079  00000+0  00000+0 0  9993
2 67302   3.4665  94.4405 0004878  52.5600 218.6704  1.00272382  1896
SHIJIAN-29B (SJ-29B)    
1 67403U 25315C   26195.99906020 -.00000079  00000+0  00000+0 0  9999
2 67403   3.4655  94.4338 0004996  54.2707 217.0142  1.00272670  1967
ELEKTRO-L 5             
1 67756U 26028A   26195.97521403 -.00000107  00000+0  00000+0 0  9990
2 67756   0.2077 324.6350 0002073 175.9175 219.4446  1.00271918  1526
JAM-E JAM 1             
1 67757U 26028B   26196.13612126  .00000147  00000+0  00000+0 0  9996
2 67757   0.2066 312.9144 0001693 320.6673 102.4340  1.00273818  1407
ECHOSTAR 25             
1 68126U 26045A   26195.48655975  .00000000  00000+0  00000+0 0  9990
2 68126   0.0242  64.7404 0002157  51.3190 241.4710  1.00277458  1264
TJS-24                  
1 69235U 26116A   26196.20073139 -.00000240  00000+0  00000+0 0  9995
2 69235   0.0775  94.8326 0000370 126.3168 234.4535  1.00269763   511
