OBJECT_NAME,OBJECT_ID,EPOCH,MEAN_MOTION,ECCENTRICITY,INCLINATION,RA_OF_ASC_NODE,ARG_OF_PERICENTER,MEAN_ANOMALY,EPHEMERIS_TYPE,CLASSIFICATION_TYPE,NORAD_CAT_ID,ELEMENT_SET_NO,REV_AT_EPOCH,BSTAR,MEAN_MOTION_DOT,MEAN_MOTION_DDOT
SPAINSAT NG I,2025-021A,2026-07-15T03:14:31.020000,1.00269954,.0000143,0.0128,47.8464,233.3536,89.3948,0,U,62852,999,426,0,.142E-5,0
QZS-6 (MICHIBIKI-6),2025-023A,2026-07-15T03:53:38.699808,1.00266976,.0001807,0.0097,2.0949,130.1122,309.6417,0,U,62876,999,523,0,-.241E-5,0
ZHONGXING-10R,2025-036A,2026-07-15T01:55:04.050336,1.00272266,.0004194,0.0191,224.1308,283.5559,284.5260,0,U,63075,999,523,0,-.361E-5,0
TJS-15,2025-045A,2026-07-13T17:56:30.408288,1.00269569,.0003351,0.3063,85.6357,295.0634,274.4075,0,U,63157,999,502,0,-.269E-5,0
TIANLIAN 2-04,2025-062A,2026-07-15T03:29:07.122048,1.00271041,.0031605,4.3044,274.0376,9.4094,141.8441,0,U,63361,999,488,0,-.141E-5,0
TJS-16,2025-064A,2026-07-13T18:20:48.606144,1.00270806,.0002489,1.1643,81.2920,290.3397,355.8257,0,U,63397,999,465,0,-.111E-5,0
TJS-17,2025-073A,2026-07-13T18:17:39.505056,1.00270523,.0000992,1.1304,82.4646,303.0552,345.0327,0,U,63524,999,455,0,-.76E-6,0
TIANLIAN 2-05,2025-084A,2026-07-15T00:02:38.774688,1.00271339,.0002578,4.3824,279.5177,154.1935,240.1636,0,U,63662,999,466,0,.119E-5,0
TJS-19,2025-097A,2026-07-13T17:33:28.505088,1.00266719,.0003966,3.2430,317.8726,245.4291,132.8569,0,U,63924,999,441,0,-.278E-5,0
CHINASAT 3B,2025-106A,2026-07-14T17:38:06.687168,1.00270420,.00038937,0.0247,140.7771,5.4649,218.1905,0,U,64062,999,433,0,-.54E-6,0
SXM-10,2025-122A,2026-07-13T14:37:25.836384,1.00271903,.00018282,0.0157,36.2449,322.9748,35.4661,0,U,64290,999,394,0,-.21E-6,0
COSMOS 2589,2025-131A,2026-07-13T17:21:07.191360,1.00273922,.0000927,0.0273,122.3287,83.5150,84.0384,0,U,64467,999,382,0,-.296E-5,0
CHINASAT 9C,2025-132A,2026-07-15T03:32:36.787200,1.00266853,.0002963,0.0181,75.3484,39.5577,323.4513,0,U,64470,999,442,0,0,0
MTG-S1,2025-143A,2026-07-15T03:06:09.321984,1.00273517,.0003454,0.5847,345.0838,261.3988,92.6300,0,U,64723,999,369,0,-.16E-6,0
DROR 1,2025-148A,2026-07-15T03:05:09.418272,1.00271916,.0001978,0.0467,254.9990,141.4661,298.8006,0,U,64784,999,357,0,-.44E-6,0
SHIYAN-29,2025-196A,2026-07-14T20:09:41.361120,1.00276426,.00133058,28.8510,18.1865,177.9549,134.2779,0,U,65486,999,315,0,-.286E-5,0
NUSANTARA LIMA (NUSANTARA 5),2025-205A,2026-07-15T01:55:48.979200,1.00268316,.0000315,0.0090,99.9467,105.3404,229.4284,0,U,65588,999,299,0,-.367E-5,0
TJS-20,2025-238A,2026-07-15T00:00:39.807936,1.00274861,.000428,5.4086,299.4435,182.2031,233.8324,0,U,66142,999,261,0,.2E-6,0
CMS-03 (GSAT-7R),2025-249B,2026-07-15T04:37:21.612000,1.00271287,.0001468,0.0189,297.4812,142.2637,356.6077,0,U,66311,999,262,0,-.86E-6,0
VIASAT-3 F2,2025-261A,2026-07-14T07:54:32.066784,1.00270448,.00007495,0.0014,307.9780,275.9845,107.8920,0,U,66454,999,306,0,-.24E-5,0
SHIJIAN-28 (SJ-28),2025-277A,2026-07-15T00:14:15.662400,1.00266940,.0001175,4.4678,271.6915,22.7282,118.8083,0,U,66549,999,243,0,-.366E-5,0
TJS-22,2025-290A,2026-07-12T19:22:52.255200,1.00269739,.0002691,1.4677,286.9097,318.9700,42.0235,0,U,66990,999,228,0,-.5E-7,0
TJS-23,2025-306A,2026-07-14T12:38:32.573760,1.00275378,.00050257,5.5269,297.3430,194.3728,165.8686,0,U,67226,999,216,0,.16E-6,0
FENGYUN 4C,2025-312A,2026-07-13T15:48:28.031328,1.00269440,.00006584,0.0385,175.3203,48.7481,77.5697,0,U,67246,999,204,0,-.328E-5,0
SHIJIAN-29A (SJ-29A),2025-315A,2026-07-14T23:58:38.776224,1.00272382,.00048782,3.4665,94.4405,52.5600,218.6704,0,U,67302,999,189,0,-.79E-6,0
SHIJIAN-29B (SJ-29B),2025-315C,2026-07-14T23:58:38.801280,1.00272670,.00049964,3.4655,94.4338,54.2707,217.0142,0,U,67403,999,196,0,-.79E-6,0
ELEKTRO-L 5,2026-028A,2026-07-14T23:24:18.492192,1.00271918,.0002073,0.2077,324.6350,175.9175,219.4446,0,U,67756,999,152,0,-.107E-5,0
JAM-E JAM 1,2026-028B,2026-07-15T03:16:00.876864,1.00273818,.0001693,0.2066,312.9144,320.6673,102.4340,0,U,67757,999,140,0,.147E-5,0
ECHOSTAR 25,2026-045A,2026-07-14T11:40:38.762400,1.00277458,.00021576,0.0242,64.7404,51.3190,241.4710,0,U,68126,999,126,0,0,0
TJS-24,2026-116A,2026-07-15T04:49:03.192096,1.00269763,.000037,0.0775,94.8326,126.3168,234.4535,0,U,69235,999,51,0,-.24E-5,0
